TIANMU-1 08             
1 57400U 23101B   26066.00237819  .00000346  00000+0  14775-4 0  9993
2 57400  97.2717 118.7901 0006380 134.2174 225.9592 15.29204229146020
STARLINK-32675          
1 62208U 24229S   26068.83226043  .00028259  00000+0  10323-2 0  9993
2 62208  43.0001 269.8674 0001538 270.3608  89.7067 15.27587577 70584
